[Satellite]
VERSION=1.1
NAME=NUSTAR
NICKNAME=NUSTAR
TLE1=1 38358U 12031A   19316.46429408  .00000943  00000-0  24825-4 0  9992
TLE2=2 38358   6.0276  52.3876 0011977 345.6772  14.3017 14.88217558403484
STATUS=0
